GLOBALSTAR M001         
1 25162U 98008A   24180.00262042 -.00000056  00000+0  30855-3 0  9997
2 25162  52.0042 284.0894 0001757 201.6787 330.3862 12.38187062199942
GLOBALSTAR M004         
1 25163U 98008B   24179.94889840 -.00000076  00000+0  15490-3 0  9990
2 25163  52.0010  54.8227 0002292 216.0489 157.4288 12.63363212217015
GLOBALSTAR M002         
1 25164U 98008C   24179.95205597 -.00000070  00000+0  13319-3 0  9995
2 25164  52.0032  48.3844 0000674 190.2382 169.8424 11.61502683142975
GLOBALSTAR M003         
1 25165U 98008D   24179.93136855  .00000047  00000+0  14526-2 0  9997
2 25165  51.9898  69.6676 0007572 304.0690 140.3136 12.12014215190269
GLOBALSTAR M014         
1 25306U 98023A   24180.20061301 -.00000044  00000+0  61871-3 0  9990
2 25306  51.9864 338.4284 0001613  86.8723  84.6235 11.65469129149880
GLOBALSTAR M006         
1 25307U 98023B   24179.95192074 -.00000131  00000+0 -11378-2 0  9997
2 25307  51.9966  18.2906 0003744 174.0837 335.9001 11.58163379175894
GLOBALSTAR M015         
1 25308U 98023C   24180.09840922 -.00000123  00000+0 -11243-2 0  9999
2 25308  51.9822 100.1664 0012136 165.7428 207.0116 11.48852526153751
GLOBALSTAR M008         
1 25309U 98023D   24180.22031779 -.00000073  00000+0  18326-3 0  9990
2 25309  51.9947 144.2734 0002321 145.1197 318.4681 12.36044709194389
